CCSDS_OMM_VERS,COMMENT,CREATION_DATE,ORIGINATOR,OBJECT_NAME,OBJECT_ID,CENTER_NAME,REF_FRAME,TIME_SYSTEM,MEAN_ELEMENT_THEORY,EPOCH,MEAN_MOTION,ECCENTRICITY,INCLINATION,RA_OF_ASC_NODE,ARG_OF_PERICENTER,MEAN_ANOMALY,EPHEMERIS_TYPE,CLASSIFICATION_TYPE,NORAD_CAT_ID,ELEMENT_SET_NO,REV_AT_EPOCH,BSTAR,MEAN_MOTION_DOT,MEAN_MOTION_DDOT,SEMIMAJOR_AXIS,PERIOD,APOAPSIS,PERIAPSIS,OBJECT_TYPE,RCS_SIZE,COUNTRY_CODE,LAUNCH_DATE,SITE,DECAY_DATE,FILE,GP_ID,TLE_LINE0,TLE_LINE1,TLE_LINE2
2.0,GENERATED VIA SPACE-TRACK.ORG API,2022-08-09T07:16:12,18 SPCS,PEGASUS R/B,2008-017B,EARTH,TEME,UTC,SGP4,2022-08-08T21:46:55.520256,15.77766304,0.0047399,12.9968,322.6653,99.2302,261.3349,0,U,32766,999,79384,0.00060496,0.00118938,0.0,6714.908,91.268,368.601,304.945,ROCKET BODY,LARGE,US,2008-04-16,WRAS,,3532502,209869101,0 PEGASUS R/B,1 32766U 08017B   22220.90758704  .00118938  00000-0  60496-3 0  9996,2 32766  12.9968 322.6653 0047399  99.2302 261.3349 15.77766304793840
2.0,GENERATED VIA SPACE-TRACK.ORG API,2022-08-09T07:16:12,18 SPCS,PEGASUS R/B,2008-017B,EARTH,TEME,UTC,SGP4,2022-08-08T21:46:55.520256,15.77766304,0.0047399,12.9968,322.6653,99.2302,261.3349,0,U,32766,999,79384,0.00060496,0.00118938,0.0,6714.908,91.268,368.601,304.945,ROCKET BODY,LARGE,US,2008-04-16,WRAS,,3532502,209869101,0 PEGASUS R/B,1 32766U 08017B   22220.90758704  .00118938  00000-0  60496-3 0  9996,2 32766  12.9968 322.6653 0047399  99.2302 261.3349 15.77766304793840
2.0,GENERATED VIA SPACE-TRACK.ORG API,2022-08-09T07:16:12,18 SPCS,PEGASUS R/B,2008-017B,EARTH,TEME,UTC,SGP4,2022-08-08T21:46:55.520256,15.77766304,0.0047399,12.9968,322.6653,99.2302,261.3349,0,U,32766,999,79384,0.00060496,0.00118938,0.0,6714.908,91.268,368.601,304.945,ROCKET BODY,LARGE,US,2008-04-16,WRAS,,3532502,209869101,0 PEGASUS R/B,1 32766U 08017B   22220.90758704  .00118938  00000-0  60496-3 0  9996,2 32766  12.9968 322.6653 0047399  99.2302 261.3349 15.77766304793840
2.0,GENERATED VIA SPACE-TRACK.ORG API,2022-08-09T07:16:12,18 SPCS,PEGASUS R/B,2008-017B,EARTH,TEME,UTC,SGP4,2022-08-08T21:46:55.520256,15.77766304,0.0047399,12.9968,322.6653,99.2302,261.3349,0,U,32766,999,79384,0.00060496,0.00118938,0.0,6714.908,91.268,368.601,304.945,ROCKET BODY,LARGE,US,2008-04-16,WRAS,,3532502,209869101,0 PEGASUS R/B,1 32766U 08017B   22220.90758704  .00118938  00000-0  60496-3 0  9996,2 32766  12.9968 322.6653 0047399  99.2302 261.3349 15.77766304793840
2.0,GENERATED VIA SPACE-TRACK.ORG API,2022-08-09T07:16:12,18 SPCS,PEGASUS R/B,2008-017B,EARTH,TEME,UTC,SGP4,2022-08-08T21:46:55.520256,15.77766304,0.0047399,12.9968,322.6653,99.2302,261.3349,0,U,32766,999,79384,0.00060496,0.00118938,0.0,6714.908,91.268,368.601,304.945,ROCKET BODY,LARGE,US,2008-04-16,WRAS,,3532502,209869101,0 PEGASUS R/B,1 32766U 08017B   22220.90758704  .00118938  00000-0  60496-3 0  9996,2 32766  12.9968 322.6653 0047399  99.2302 261.3349 15.77766304793840
2.0,GENERATED VIA SPACE-TRACK.ORG API,2022-08-09T07:16:12,18 SPCS,PEGASUS R/B,2008-017B,EARTH,TEME,UTC,SGP4,2022-08-08T21:46:55.520256,15.77766304,0.0047399,12.9968,322.6653,99.2302,261.3349,0,U,32766,999,79384,0.00060496,0.00118938,0.0,6714.908,91.268,368.601,304.945,ROCKET BODY,LARGE,US,2008-04-16,WRAS,,3532502,209869101,0 PEGASUS R/B,1 32766U 08017B   22220.90758704  .00118938  00000-0  60496-3 0  9996,2 32766  12.9968 322.6653 0047399  99.2302 261.3349 15.77766304793840
2.0,GENERATED VIA SPACE-TRACK.ORG API,2022-08-09T07:16:12,18 SPCS,PEGASUS R/B,2008-017B,EARTH,TEME,UTC,SGP4,2022-08-08T21:46:55.520256,15.77766304,0.0047399,12.9968,322.6653,99.2302,261.3349,0,U,32766,999,79384,0.00060496,0.00118938,0.0,6714.908,91.268,368.601,304.945,ROCKET BODY,LARGE,US,2008-04-16,WRAS,,3532502,209869101,0 PEGASUS R/B,1 32766U 08017B   22220.90758704  .00118938  00000-0  60496-3 0  9996,2 32766  12.9968 322.6653 0047399  99.2302 261.3349 15.77766304793840
2.0,GENERATED VIA SPACE-TRACK.ORG API,2022-08-09T07:16:12,18 SPCS,PEGASUS R/B,2008-017B,EARTH,TEME,UTC,SGP4,2022-08-08T21:46:55.520256,15.77766304,0.0047399,12.9968,322.6653,99.2302,261.3349,0,U,32766,999,79384,0.00060496,0.00118938,0.0,6714.908,91.268,368.601,304.945,ROCKET BODY,LARGE,US,2008-04-16,WRAS,,3532502,209869101,0 PEGASUS R/B,1 32766U 08017B   22220.90758704  .00118938  00000-0  60496-3 0  9996,2 32766  12.9968 322.6653 0047399  99.2302 261.3349 15.77766304793840
2.0,GENERATED VIA SPACE-TRACK.ORG API,2022-08-09T07:16:12,18 SPCS,PEGASUS R/B,2008-017B,EARTH,TEME,UTC,SGP4,2022-08-08T21:46:55.520256,15.77766304,0.0047399,12.9968,322.6653,99.2302,261.3349,0,U,32766,999,79384,0.00060496,0.00118938,0.0,6714.908,91.268,368.601,304.945,ROCKET BODY,LARGE,US,2008-04-16,WRAS,,3532502,209869101,0 PEGASUS R/B,1 32766U 08017B   22220.90758704  .00118938  00000-0  60496-3 0  9996,2 32766  12.9968 322.6653 0047399  99.2302 261.3349 15.77766304793840
2.0,GENERATED VIA SPACE-TRACK.ORG API,2022-08-09T07:16:12,18 SPCS,PEGASUS R/B,2008-017B,EARTH,TEME,UTC,SGP4,2022-08-08T21:46:55.520256,15.77766304,0.0047399,12.9968,322.6653,99.2302,261.3349,0,U,32766,999,79384,0.00060496,0.00118938,0.0,6714.908,91.268,368.601,304.945,ROCKET BODY,LARGE,US,2008-04-16,WRAS,,3532502,209869101,0 PEGASUS R/B,1 32766U 08017B   22220.90758704  .00118938  00000-0  60496-3 0  9996,2 32766  12.9968 322.6653 0047399  99.2302 261.3349 15.77766304793840
2.0,GENERATED VIA SPACE-TRACK.ORG API,2022-08-09T07:16:12,18 SPCS,PEGASUS R/B,2008-017B,EARTH,TEME,UTC,SGP4,2022-08-08T21:46:55.520256,15.77766304,0.0047399,12.9968,322.6653,99.2302,261.3349,0,U,32766,999,79384,0.00060496,0.00118938,0.0,6714.908,91.268,368.601,304.945,ROCKET BODY,LARGE,US,2008-04-16,WRAS,,3532502,209869101,0 PEGASUS R/B,1 32766U 08017B   22220.90758704  .00118938  00000-0  60496-3 0  9996,2 32766  12.9968 322.6653 0047399  99.2302 261.3349 15.77766304793840
2.0,GENERATED VIA SPACE-TRACK.ORG API,2022-08-09T07:16:12,18 SPCS,PEGASUS R/B,2008-017B,EARTH,TEME,UTC,SGP4,2022-08-08T21:46:55.520256,15.77766304,0.0047399,12.9968,322.6653,99.2302,261.3349,0,U,32766,999,79384,0.00060496,0.00118938,0.0,6714.908,91.268,368.601,304.945,ROCKET BODY,LARGE,US,2008-04-16,WRAS,,3532502,209869101,0 PEGASUS R/B,1 32766U 08017B   22220.90758704  .00118938  00000-0  60496-3 0  9996,2 32766  12.9968 322.6653 0047399  99.2302 261.3349 15.77766304793840
2.0,GENERATED VIA SPACE-TRACK.ORG API,2022-08-09T07:16:12,18 SPCS,PEGASUS R/B,2008-017B,EARTH,TEME,UTC,SGP4,2022-08-08T21:46:55.520256,15.77766304,0.0047399,12.9968,322.6653,99.2302,261.3349,0,U,32766,999,79384,0.00060496,0.00118938,0.0,6714.908,91.268,368.601,304.945,ROCKET BODY,LARGE,US,2008-04-16,WRAS,,3532502,209869101,0 PEGASUS R/B,1 32766U 08017B   22220.90758704  .00118938  00000-0  60496-3 0  9996,2 32766  12.9968 322.6653 0047399  99.2302 261.3349 15.77766304793840
2.0,GENERATED VIA SPACE-TRACK.ORG API,2022-08-09T07:16:12,18 SPCS,PEGASUS R/B,2008-017B,EARTH,TEME,UTC,SGP4,2022-08-08T21:46:55.520256,15.77766304,0.0047399,12.9968,322.6653,99.2302,261.3349,0,U,32766,999,79384,0.00060496,0.00118938,0.0,6714.908,91.268,368.601,304.945,ROCKET BODY,LARGE,US,2008-04-16,WRAS,,3532502,209869101,0 PEGASUS R/B,1 32766U 08017B   22220.90758704  .00118938  00000-0  60496-3 0  9996,2 32766  12.9968 322.6653 0047399  99.2302 261.3349 15.77766304793840
2.0,GENERATED VIA SPACE-TRACK.ORG API,2022-08-09T07:16:12,18 SPCS,PEGASUS R/B,2008-017B,EARTH,TEME,UTC,SGP4,2022-08-08T21:46:55.520256,15.77766304,0.0047399,12.9968,322.6653,99.2302,261.3349,0,U,32766,999,79384,0.00060496,0.00118938,0.0,6714.908,91.268,368.601,304.945,ROCKET BODY,LARGE,US,2008-04-16,WRAS,,3532502,209869101,0 PEGASUS R/B,1 32766U 08017B   22220.90758704  .00118938  00000-0  60496-3 0  9996,2 32766  12.9968 322.6653 0047399  99.2302 261.3349 15.77766304793840
2.0,GENERATED VIA SPACE-TRACK.ORG API,2022-08-11T17:30:41,18 SPCS,H-2A DEB,2012-025H,EARTH,TEME,UTC,SGP4,2022-08-11T05:19:06.620160,14.76632825,0.0008961,98.2039,300.2383,3.2855,356.8411,0,U,38347,999,55028,0.00013606,8.97e-06,0.0,7018.11,97.519,646.264,633.686,DEBRIS,LARGE,JPN,2012-05-17,TNSTA,,3534319,210019338,0 H-2A DEB,1 38347U 12025H   22223.22160440  .00000897  00000-0  13606-3 0  9998,2 38347  98.2039 300.2383 0008961   3.2855 356.8411 14.76632825550286
2.0,GENERATED VIA SPACE-TRACK.ORG API,2022-08-11T21:36:11,18 SPCS,METOP-B,2012-049A,EARTH,TEME,UTC,SGP4,2022-08-11T19:42:07.791264,14.21500535,5.32e-05,98.6921,282.7442,123.6736,348.7198,0,U,38771,999,51359,4.1631e-05,4.7e-07,0.0,7198.42,101.301,820.668,819.902,PAYLOAD,LARGE,EUME,2012-09-17,TTMTR,,3534435,210033445,0 METOP-B,1 38771U 12049A   22223.82092351  .00000047  00000-0  41631-4 0  9993,2 38771  98.6921 282.7442 0000532 123.6736 348.7198 14.21500535513599
2.0,GENERATED VIA SPACE-TRACK.ORG API,2022-08-11T06:56:12,18 SPCS,CZ-4C R/B,2013-046D,EARTH,TEME,UTC,SGP4,2022-08-11T03:48:05.061024,13.69876867,0.0467419,63.4401,111.732,353.692,5.8356,0,U,39242,999,44726,4.0309e-05,-2.8e-07,0.0,7378.15,105.119,1344.884,655.146,ROCKET BODY,LARGE,PRC,2013-09-01,JSC,,3534025,210000468,0 CZ-4C R/B,1 39242U 13046D   22223.15839191 -.00000028  00000-0  40309-4 0  9993,2 39242  63.4401 111.7320 0467419 353.6920   5.8356 13.69876867447265
2.0,GENERATED VIA SPACE-TRACK.ORG API,2022-08-11T22:36:11,18 SPCS,CUSAT 2/FALCON 9,2013-055G,EARTH,TEME,UTC,SGP4,2022-08-11T18:20:45.312576,14.65142838,0.0518567,80.9588,134.2028,306.8312,48.6369,0,U,39271,999,46486,0.00032609,0.00015165,0.0,7054.754,98.284,1042.455,310.783,PAYLOAD,LARGE,US,2013-09-29,AFWTR,,3534575,210036938,0 CUSAT 2/FALCON 9,1 39271U 13055G   22223.76441334  .00015165  00000-0  32609-3 0  9990,2 39271  80.9588 134.2028 0518567 306.8312  48.6369 14.65142838464863
